NORAD_CAT_ID,OBJECT_NAME,OBJECT_TYPE,EPOCH,MEAN_MOTION,ECCENTRICITY,INCLINATION,RA_OF_ASC_NODE,ARG_OF_PERICENTER,MEAN_ANOMALY,BSTAR,MEAN_MOTION_DOT,MEAN_MOTION_DDOT,TLE_LINE0,TLE_LINE1,TLE_LINE2,SEMIMAJOR_AXIS,PERIOD,APOGEE,PERIGEE,DECAYED
49449.0,STARLINK-3137,PAYLOAD,2022-03-22 14:00:01,15.08854758,0.000179,53.2159,239.9087,50.5057,169.1659,-0.0014842,-0.00023841,0.0,0 STARLINK-3137,1 49449U 21104AT  22081.58334491 -.00023841  00000-0 -14842-2 0  9999,2 49449  53.2159 239.9087 0001790  50.5057 169.1659 15.08854758  3612,6917.835,95.437,540.939,538.462,0.0
49449.0,STARLINK-3137,PAYLOAD,2022-03-22 22:00:01,15.08838973,0.0001873,53.2154,238.4133,44.5827,186.7568,-0.0003684,-6.146e-05,0.0,0 STARLINK-3137,1 49449U 21104AT  22081.91668981 -.00006146  00000-0 -36840-3 0  9992,2 49449  53.2154 238.4133 0001873  44.5827 186.7568 15.08838973  3607,6917.884,95.438,541.044,538.453,0.0
49449.0,STARLINK-3137,PAYLOAD,2022-03-23 08:00:01,15.08802715,0.0001661,53.2152,236.5409,50.4204,285.3526,0.0032005,0.00050965,0.0,0 STARLINK-3137,1 49449U 21104AT  22082.33334491  .00050965  00000-0  32005-2 0  9999,2 49449  53.2152 236.5409 0001661  50.4204 285.3526 15.08802715 21357,6917.994000000002,95.44,541.008,538.71,0.0
49449.0,STARLINK-3137,PAYLOAD,2022-03-23 14:00:01,15.08844222,0.0001754,53.2153,235.4198,48.4833,205.963,-0.0013513,-0.00021732,0.0,0 STARLINK-3137,1 49449U 21104AT  22082.58334491 -.00021732  00000-0 -13513-2 0  9991,2 49449  53.2153 235.4198 0001754  48.4833 205.9630 15.08844222  3611,6917.8669999999975,95.437,540.946,538.519,0.0
49449.0,STARLINK-3137,PAYLOAD,2022-03-23 22:00:00,15.08824283,0.0001866,53.2148,233.9244,43.2195,222.8185,0.0020258,0.00032086,0.0,0 STARLINK-3137,1 49449U 21104AT  22082.91667824  .00032086  00000-0  20258-2 0  9993,2 49449  53.2148 233.9244 0001866  43.2195 222.8185 15.08824283 21447,6917.928000000001,95.439,541.0840000000002,538.503,0.0
49449.0,STARLINK-3137,PAYLOAD,2022-03-24 14:00:01,15.08862849,0.0001897,53.2148,230.9308,49.4002,239.8319,-0.0035255,-0.00055997,0.0,0 STARLINK-3137,1 49449U 21104AT  22083.58334491 -.00055997  00000-0 -35255-2 0  9999,2 49449  53.2148 230.9308 0001897  49.4002 239.8319 15.08862849  3586,6917.811,95.436,540.988,538.363,0.0
49449.0,STARLINK-3137,PAYLOAD,2022-03-24 22:00:00,15.08823739,0.0002018,53.2145,229.4352,45.5972,255.2303,0.0015630999999999,0.00024665,0.0,0 STARLINK-3137,1 49449U 21104AT  22083.91667824  .00024665  00000-0  15631-2 0  9997,2 49449  53.2145 229.4352 0002018  45.5972 255.2303 15.08823739  3607,6917.93,95.439,541.191,538.399,0.0
49449.0,STARLINK-3137,PAYLOAD,2022-03-25 00:00:02,15.08847182,0.0001999,53.2145,229.0604,46.3665,347.4156,-0.0011136,-0.00017971,0.0,0 STARLINK-3137,1 49449U 21104AT  22084.00002315 -.00017971  00000-0 -11136-2 0  9996,2 49449  53.2145 229.0604 0001999  46.3665 347.4156 15.08847182 21617,6917.858,95.437,541.106,538.341,0.0
49449.0,STARLINK-3137,PAYLOAD,2022-03-25 14:00:01,15.08870141,0.0001969,53.2148,226.4417,48.5743,275.4335,-0.0042863,-0.00067919,0.0,0 STARLINK-3137,1 49449U 21104AT  22084.58334491 -.00067919  00000-0 -42863-2 0  9990,2 49449  53.2148 226.4417 0001969  48.5743 275.4335 15.08870141  3587,6917.788000000001,95.436,541.015,538.2909999999998,0.0
49449.0,STARLINK-3137,PAYLOAD,2022-03-25 22:00:01,15.08823406,0.000201,53.2146,224.9457,42.9683,292.7037,0.0010132,0.00015867,0.0,0 STARLINK-3137,1 49449U 21104AT  22084.91668981  .00015867  00000-0  10132-2 0  9998,2 49449  53.2146 224.9457 0002010  42.9683 292.7037 15.08823406 21742,6917.931,95.439,541.187,538.406,0.0
49449.0,STARLINK-3137,PAYLOAD,2022-03-26 14:00:01,15.08870787,0.0001974,53.2151,221.9524,45.6842,313.1048,-0.0036492,-0.00057948,0.0,0 STARLINK-3137,1 49449U 21104AT  22085.58334491 -.00057948  00000-0 -36492-2 0  9993,2 49449  53.2151 221.9524 0001974  45.6842 313.1048 15.08870787  3570,6917.786,95.436,541.0169999999998,538.286,0.0
49449.0,STARLINK-3137,PAYLOAD,2022-03-26 22:00:00,15.08828926,0.0002,53.2149,220.4564,41.0524,329.3409,0.00053752,8.274e-05,0.0,0 STARLINK-3137,1 49449U 21104AT  22085.91667824  .00008274  00000-0  53752-3 0  9994,2 49449  53.2149 220.4564 0002000  41.0524 329.3409 15.08828926  3593,6917.9140000000025,95.438,541.163,538.396,0.0
49449.0,STARLINK-3137,PAYLOAD,2022-03-27 06:00:00,15.088171,0.0001794,53.2152,218.9583,45.9482,336.0407,0.002841,0.00045189,0.0,0 STARLINK-3137,1 49449U 21104AT  22086.25001157  .00045189  00000-0  28410-2 0  9991,2 49449  53.2152 218.9583 0001794  45.9482 336.0407 15.08817100 21949,6917.95,95.439,541.056,538.5740000000002,0.0
49449.0,STARLINK-3137,PAYLOAD,2022-03-27 14:00:01,15.08828815,0.0001891,53.2155,217.4633,41.1489,352.3886,-0.00096413,-0.00015595,0.0,0 STARLINK-3137,1 49449U 21104AT  22086.58334491 -.00015595  00000-0 -96413-3 0  9996,2 49449  53.2155 217.4633 0001891  41.1489 352.3886 15.08828815 22000,6917.915,95.438,541.0880000000002,538.471,0.0
49449.0,STARLINK-3137,PAYLOAD,2022-03-27 22:00:01,15.08838055,0.0001936,53.2153,215.967,37.6979,7.4774,0.00065808,0.000102,0.0,0 STARLINK-3137,1 49449U 21104AT  22086.91668981  .00010200  00000-0  65808-3 0  9997,2 49449  53.2153 215.9670 0001936  37.6979   7.4774 15.08838055  3578,6917.886,95.438,541.091,538.4119999999998,0.0
49449.0,STARLINK-3137,PAYLOAD,2022-03-28 06:00:00,15.08823867,0.0001736,53.2156,214.4691,42.6976,14.019,0.0040067,0.0006403,0.0,0 STARLINK-3137,1 49449U 21104AT  22087.25001157  .00064030  00000-0  40067-2 0  9990,2 49449  53.2156 214.4691 0001736  42.6976  14.0190 15.08823867 22100,6917.93,95.439,540.996,538.594,0.0
49449.0,STARLINK-3137,PAYLOAD,2022-03-28 14:00:01,15.08885077,0.0001894,53.2158,212.9741,39.5244,28.8536,-0.0035264,-0.00056044,0.0,0 STARLINK-3137,1 49449U 21104AT  22087.58335648 -.00056044  00000-0 -35264-2 0  9992,2 49449  53.2158 212.9741 0001894  39.5244  28.8536 15.08885077  3601,6917.743,95.435,540.918,538.297,0.0
49449.0,STARLINK-3137,PAYLOAD,2022-03-28 22:00:00,15.08867005,0.0001919,53.2156,211.4777,36.7576,43.1794,-0.0031188,-0.0004962,0.0,0 STARLINK-3137,1 49449U 21104AT  22087.91667824 -.00049620  00000-0 -31188-2 0  9996,2 49449  53.2156 211.4777 0001919  36.7576  43.1794 15.08867005 22201,6917.7980000000025,95.436,540.99,538.335,0.0
49449.0,STARLINK-3137,PAYLOAD,2022-03-29 14:00:01,15.08830632,0.0001991,53.2159,208.4852,43.1746,59.956,-0.0013321,-0.00021421,0.0,0 STARLINK-3137,1 49449U 21104AT  22088.58334491 -.00021421  00000-0 -13321-2 0  9999,2 49449  53.2159 208.4852 0001991  43.1746  59.9560 15.08830632 22308,6917.909000000002,95.438,541.151,538.3969999999998,0.0
49449.0,STARLINK-3137,PAYLOAD,2022-03-29 22:00:00,15.08838144,0.0002017,53.2156,206.9886,41.6383,73.0642,-6.0791e-05,-1.256e-05,0.0,0 STARLINK-3137,1 49449U 21104AT  22088.91667824 -.00001256  00000-0 -60791-4 0  9994,2 49449  53.2156 206.9886 0002017  41.6383  73.0642 15.08838144  3577,6917.886,95.438,541.146,538.356,0.0
49449.0,STARLINK-3137,PAYLOAD,2022-03-30 02:00:01,15.08831798,0.000189,53.2159,206.2395,44.3815,256.1195,0.0010880999999999,0.00017068,0.0,0 STARLINK-3137,1 49449U 21104AT  22089.08334491  .00017068  00000-0  10881-2 0  9993,2 49449  53.2159 206.2395 0001890  44.3815 256.1195 15.08831798 22370,6917.905,95.438,541.078,538.4630000000002,0.0
49449.0,STARLINK-3137,PAYLOAD,2022-03-30 14:00:01,15.08832489,0.0001946,53.2158,203.9963,41.7822,96.1783,-0.00022822,-3.918e-05,0.0,0 STARLINK-3137,1 49449U 21104AT  22089.58335648 -.00003918  00000-0 -22822-3 0  9993,2 49449  53.2158 203.9963 0001946  41.7822  96.1783 15.08832489  3568,6917.903,95.438,541.115,538.422,0.0
49449.0,STARLINK-3137,PAYLOAD,2022-03-30 22:00:00,15.08858444,0.0001926,53.2155,202.4996,38.2834,111.1936,-0.0035329,-0.00056106,0.0,0 STARLINK-3137,1 49449U 21104AT  22089.91667824 -.00056106  00000-0 -35329-2 0  9996,2 49449  53.2155 202.4996 0001926  38.2834 111.1936 15.08858444 22509,6917.824000000001,95.436,541.021,538.357,0.0
49449.0,STARLINK-3137,PAYLOAD,2022-03-31 14:00:01,15.08846381,0.0001936,53.2157,199.5074,38.0114,134.64600000000002,-0.00077535,-0.00012609,0.0,0 STARLINK-3137,1 49449U 21104AT  22090.58334491 -.00012609  00000-0 -77535-3 0  9998,2 49449  53.2157 199.5074 0001936  38.0114 134.6460 15.08846381 22604,6917.861,95.437,541.065,538.387,0.0
49449.0,STARLINK-3137,PAYLOAD,2022-03-31 22:00:00,15.08866456,0.000189,53.2155,198.0104,34.9878,149.29,-0.0010363,-0.00016755,0.0,0 STARLINK-3137,1 49449U 21104AT  22090.91667824 -.00016755  00000-0 -10363-2 0  9995,2 49449  53.2155 198.0104 0001890  34.9878 149.2900 15.08866456 22652,6917.8,95.436,540.972,538.357,0.0
49449.0,STARLINK-3137,PAYLOAD,2022-04-01 14:00:01,15.08862487,0.0002049,53.2157,195.0182,37.7241,169.7961,-0.0018674,-0.00029904,0.0,0 STARLINK-3137,1 49449U 21104AT  22091.58334491 -.00029904  00000-0 -18674-2 0  9993,2 49449  53.2157 195.0182 0002049  37.7241 169.7961 15.08862487  3618,6917.812,95.436,541.094,538.259,0.0
49449.0,STARLINK-3137,PAYLOAD,2022-04-01 22:00:00,15.08866799,0.0002064,53.2156,193.5212,37.6322,181.5042,-0.0049744,-0.00078652,0.0,0 STARLINK-3137,1 49449U 21104AT  22091.91667824 -.00078652  00000-0 -49744-2 0  9995,2 49449  53.2156 193.5212 0002064  37.6322 181.5042 15.08866799 22804,6917.7980000000025,95.436,541.091,538.236,0.0
49449.0,STARLINK-3137,PAYLOAD,2022-04-02 14:00:01,15.08843463,0.0002182,53.2159,190.5292,39.6595,202.7039,-0.00071069,-0.00011583,0.0,0 STARLINK-3137,1 49449U 21104AT  22092.58335648 -.00011583  00000-0 -71069-3 0  9991,2 49449  53.2159 190.5292 0002182  39.6595 202.7039 15.08843463 22903,6917.87,95.437,541.244,538.225,0.0
49449.0,STARLINK-3137,PAYLOAD,2022-04-02 22:00:01,15.08854706,0.0001994,53.2159,189.032,35.8041,218.1566,-0.005283,-0.0008343,0.0,0 STARLINK-3137,1 49449U 21104AT  22092.91668981 -.00083430  00000-0 -52830-2 0  9991,2 49449  53.2159 189.0320 0001994  35.8041 218.1566 15.08854706  3561,6917.835,95.437,541.08,538.321,0.0
